{
  "type": "FeatureCollection",
  "features": [
    {
      "type": "Feature",
      "properties": {
        "norad_id": 51444,
        "name": "CSG-2",
        "group": "resource",
        "lat": 10.541970382901654,
        "lon": 157.36131516388213,
        "alt_km": 623.906291531127,
        "timestamp": "2025-12-03T08:58:45.656999+00:00",
        "meta_object_name": "CSG-2",
        "meta_object_id": "2022-008A",
        "meta_epoch": "2025-12-03T04:04:14.454336",
        "meta_mean_motion": 14.82147266,
        "meta_eccentricity": 0.0001479,
        "meta_inclination": 97.8807,
        "meta_ra_of_asc_node": 158.637,
        "meta_arg_of_pericenter": 90.4011,
        "meta_mean_anomaly": 269.7371,
        "meta_ephemeris_type": 0,
        "meta_classification_type": "U",
        "meta_norad_cat_id": 51444,
        "meta_element_set_no": 999,
        "meta_rev_at_epoch": 20755,
        "meta_bstar": 0.00010453,
        "meta_mean_motion_dot": 7.8e-06,
        "meta_mean_motion_ddot": 0,
        "tle_line1": "1 51444U 22008A   25337.16961174  .00000780  00000+0  10453-3 0  9995",
        "tle_line2": "2 51444  97.8807 158.6370 0001479  90.4011 269.7371 14.82147266207550"
      },
      "geometry": {
        "type": "Point",
        "coordinates": [
          157.36131516388213,
          10.541970382901654
        ]
      }
    },
    {
      "type": "Feature",
      "properties": {
        "norad_id": 52912,
        "name": "GAOFEN-12 03",
        "group": "resource",
        "lat": 13.41990979760115,
        "lon": -136.94689561498123,
        "alt_km": 631.0229996506496,
        "timestamp": "2025-12-03T08:58:45.657009+00:00",
        "meta_object_name": "GAOFEN-12 03",
        "meta_object_id": "2022-069A",
        "meta_epoch": "2025-12-03T04:02:56.601888",
        "meta_mean_motion": 14.79570521,
        "meta_eccentricity": 0.0002321,
        "meta_inclination": 97.8487,
        "meta_ra_of_asc_node": 224.7386,
        "meta_arg_of_pericenter": 76.011,
        "meta_mean_anomaly": 284.136,
        "meta_ephemeris_type": 0,
        "meta_classification_type": "U",
        "meta_norad_cat_id": 52912,
        "meta_element_set_no": 999,
        "meta_rev_at_epoch": 18562,
        "meta_bstar": 0.00021853,
        "meta_mean_motion_dot": 1.585e-05,
        "meta_mean_motion_ddot": 0,
        "tle_line1": "1 52912U 22069A   25337.16871067  .00001585  00000+0  21853-3 0  9994",
        "tle_line2": "2 52912  97.8487 224.7386 0002321  76.0110 284.1360 14.79570521185626"
      },
      "geometry": {
        "type": "Point",
        "coordinates": [
          -136.94689561498123,
          13.41990979760115
        ]
      }
    },
    {
      "type": "Feature",
      "properties": {
        "norad_id": 54754,
        "name": "SWOT",
        "group": "resource",
        "lat": 39.53481760168672,
        "lon": 109.18018697292382,
        "alt_km": 889.7322681204059,
        "timestamp": "2025-12-03T08:58:45.657019+00:00",
        "meta_object_name": "SWOT",
        "meta_object_id": "2022-173A",
        "meta_epoch": "2025-12-03T04:53:12.482016",
        "meta_mean_motion": 14.00172364,
        "meta_eccentricity": 3.11e-05,
        "meta_inclination": 77.6099,
        "meta_ra_of_asc_node": 299.8634,
        "meta_arg_of_pericenter": 139.8881,
        "meta_mean_anomaly": 220.2294,
        "meta_ephemeris_type": 0,
        "meta_classification_type": "U",
        "meta_norad_cat_id": 54754,
        "meta_element_set_no": 999,
        "meta_rev_at_epoch": 15172,
        "meta_bstar": 5.9767e-05,
        "meta_mean_motion_dot": 8.6e-07,
        "meta_mean_motion_ddot": 0,
        "tle_line1": "1 54754U 22173A   25337.20361669  .00000086  00000+0  59767-4 0  9994",
        "tle_line2": "2 54754  77.6099 299.8634 0000311 139.8881 220.2294 14.00172364151724"
      },
      "geometry": {
        "type": "Point",
        "coordinates": [
          109.18018697292382,
          39.53481760168672
        ]
      }
    },
    {
      "type": "Feature",
      "properties": {
        "norad_id": 57654,
        "name": "GAOFEN-12 04",
        "group": "resource",
        "lat": -0.44283085566971314,
        "lon": 73.21238801637288,
        "alt_km": 633.8404252999271,
        "timestamp": "2025-12-03T08:58:45.657030+00:00",
        "meta_object_name": "GAOFEN-12 04",
        "meta_object_id": "2023-123A",
        "meta_epoch": "2025-12-03T04:55:15.940704",
        "meta_mean_motion": 14.79652624,
        "meta_eccentricity": 0.000146,
        "meta_inclination": 97.9113,
        "meta_ra_of_asc_node": 253.1075,
        "meta_arg_of_pericenter": 71.2616,
        "meta_mean_anomaly": 288.8754,
        "meta_ephemeris_type": 0,
        "meta_classification_type": "U",
        "meta_norad_cat_id": 57654,
        "meta_element_set_no": 999,
        "meta_rev_at_epoch": 12364,
        "meta_bstar": 0.00026953,
        "meta_mean_motion_dot": 1.971e-05,
        "meta_mean_motion_ddot": 0,
        "tle_line1": "1 57654U 23123A   25337.20504561  .00001971  00000+0  26953-3 0  9996",
        "tle_line2": "2 57654  97.9113 253.1075 0001460  71.2616 288.8754 14.79652624123640"
      },
      "geometry": {
        "type": "Point",
        "coordinates": [
          73.21238801637288,
          -0.44283085566971314
        ]
      }
    },
    {
      "type": "Feature",
      "properties": {
        "norad_id": 59065,
        "name": "PARS 1",
        "group": "resource",
        "lat": -40.779933064392935,
        "lon": -45.396928638379684,
        "alt_km": 457.5101066260104,
        "timestamp": "2025-12-03T08:58:45.657040+00:00",
        "meta_object_name": "PARS 1",
        "meta_object_id": "2024-039Q",
        "meta_epoch": "2025-12-03T04:28:54.080256",
        "meta_mean_motion": 15.4064416,
        "meta_eccentricity": 0.0012656,
        "meta_inclination": 97.4617,
        "meta_ra_of_asc_node": 307.9205,
        "meta_arg_of_pericenter": 100.3898,
        "meta_mean_anomaly": 259.8775,
        "meta_ephemeris_type": 0,
        "meta_classification_type": "U",
        "meta_norad_cat_id": 59065,
        "meta_element_set_no": 999,
        "meta_rev_at_epoch": 9841,
        "meta_bstar": 0.00037147,
        "meta_mean_motion_dot": 0.00015104,
        "meta_mean_motion_ddot": 0,
        "tle_line1": "1 59065U 24039Q   25337.18673704  .00015104  00000+0  37147-3 0  9994",
        "tle_line2": "2 59065  97.4617 307.9205 0012656 100.3898 259.8775 15.40644160 98412"
      },
      "geometry": {
        "type": "Point",
        "coordinates": [
          -45.396928638379684,
          -40.779933064392935
        ]
      }
    },
    {
      "type": "Feature",
      "properties": {
        "norad_id": 59371,
        "name": "RESURS-P 4",
        "group": "resource",
        "lat": 36.625174408521275,
        "lon": -81.53468741440281,
        "alt_km": 466.0293296692216,
        "timestamp": "2025-12-03T08:58:45.657050+00:00",
        "meta_object_name": "RESURS-P 4",
        "meta_object_id": "2024-061A",
        "meta_epoch": "2025-12-03T04:06:56.400768",
        "meta_mean_motion": 15.31965378,
        "meta_eccentricity": 0.0002169,
        "meta_inclination": 97.2527,
        "meta_ra_of_asc_node": 283.6991,
        "meta_arg_of_pericenter": 55.2512,
        "meta_mean_anomaly": 304.8934,
        "meta_ephemeris_type": 0,
        "meta_classification_type": "U",
        "meta_norad_cat_id": 59371,
        "meta_element_set_no": 999,
        "meta_rev_at_epoch": 9374,
        "meta_bstar": 0.00020461,
        "meta_mean_motion_dot": 6.239e-05,
        "meta_mean_motion_ddot": 0,
        "tle_line1": "1 59371U 24061A   25337.17148612  .00006239  00000+0  20461-3 0  9993",
        "tle_line2": "2 59371  97.2527 283.6991 0002169  55.2512 304.8934 15.31965378 93747"
      },
      "geometry": {
        "type": "Point",
        "coordinates": [
          -81.53468741440281,
          36.625174408521275
        ]
      }
    },
    {
      "type": "Feature",
      "properties": {
        "norad_id": 59625,
        "name": "LEGION 1",
        "group": "resource",
        "lat": 66.5779019743087,
        "lon": 34.33114574239791,
        "alt_km": 509.5435612928395,
        "timestamp": "2025-12-03T08:58:45.657061+00:00",
        "meta_object_name": "LEGION 1",
        "meta_object_id": "2024-081A",
        "meta_epoch": "2025-12-03T03:55:49.791072",
        "meta_mean_motion": 15.16325628,
        "meta_eccentricity": 0.0004732,
        "meta_inclination": 97.523,
        "meta_ra_of_asc_node": 51.8846,
        "meta_arg_of_pericenter": 355.1804,
        "meta_mean_anomaly": 4.9382,
        "meta_ephemeris_type": 0,
        "meta_classification_type": "U",
        "meta_norad_cat_id": 59625,
        "meta_element_set_no": 999,
        "meta_rev_at_epoch": 8782,
        "meta_bstar": 0.00037867,
        "meta_mean_motion_dot": 7.277e-05,
        "meta_mean_motion_ddot": 0,
        "tle_line1": "1 59625U 24081A   25337.16377073  .00007277  00000+0  37867-3 0  9992",
        "tle_line2": "2 59625  97.5230  51.8846 0004732 355.1804   4.9382 15.16325628 87829"
      },
      "geometry": {
        "type": "Point",
        "coordinates": [
          34.33114574239791,
          66.5779019743087
        ]
      }
    }
  ]
}